{
  "type": "FeatureCollection",
  "features": [
    {
      "type": "Feature",
      "properties": {
        "norad_id": 44333,
        "name": "AT&T T-16",
        "group": "intelsat",
        "lat": -0.03578029136570416,
        "lon": -26.58128195780598,
        "alt_km": 35789.78680081146,
        "timestamp": "2025-12-24T22:42:21.690243+00:00",
        "meta_object_name": "AT&T T-16",
        "meta_object_id": "2019-034A",
        "meta_epoch": "2025-12-23T22:55:25.672800",
        "meta_mean_motion": 1.00268558,
        "meta_eccentricity": 6.686e-05,
        "meta_inclination": 0.0228,
        "meta_ra_of_asc_node": 67.9518,
        "meta_arg_of_pericenter": 76.4171,
        "meta_mean_anomaly": 191.3588,
        "meta_ephemeris_type": 0,
        "meta_classification_type": "U",
        "meta_norad_cat_id": 44333,
        "meta_element_set_no": 999,
        "meta_rev_at_epoch": 2387,
        "meta_bstar": 0,
        "meta_mean_motion_dot": -9.4e-07,
        "meta_mean_motion_ddot": 0,
        "tle_line1": "1 44333U 19034A   25357.95515825 -.00000094  00000+0  00000+0 0  9998",
        "tle_line2": "2 44333   0.0228  67.9518 0000668  76.4171 191.3588  1.00268558 23873"
      },
      "geometry": {
        "type": "Point",
        "coordinates": [
          -26.58128195780598,
          -0.03578029136570416
        ]
      }
    },
    {
      "type": "Feature",
      "properties": {
        "norad_id": 44476,
        "name": "INTELSAT 39 (IS-39)",
        "group": "intelsat",
        "lat": 0.03474548049990549,
        "lon": 136.2243294665129,
        "alt_km": 35782.232865060694,
        "timestamp": "2025-12-24T22:42:21.690254+00:00",
        "meta_object_name": "INTELSAT 39 (IS-39)",
        "meta_object_id": "2019-049B",
        "meta_epoch": "2025-12-24T04:50:07.636128",
        "meta_mean_motion": 1.00269084,
        "meta_eccentricity": 0.00011052,
        "meta_inclination": 0.0204,
        "meta_ra_of_asc_node": 11.2429,
        "meta_arg_of_pericenter": 137.1016,
        "meta_mean_anomaly": 79.1033,
        "meta_ephemeris_type": 0,
        "meta_classification_type": "U",
        "meta_norad_cat_id": 44476,
        "meta_element_set_no": 999,
        "meta_rev_at_epoch": 2337,
        "meta_bstar": 0,
        "meta_mean_motion_dot": 0,
        "meta_mean_motion_ddot": 0,
        "tle_line1": "1 44476U 19049B   25358.20147727  .00000000  00000+0  00000+0 0  9999",
        "tle_line2": "2 44476   0.0204  11.2429 0001105 137.1016  79.1033  1.00269084 23376"
      },
      "geometry": {
        "type": "Point",
        "coordinates": [
          136.2243294665129,
          0.03474548049990549
        ]
      }
    },
    {
      "type": "Feature",
      "properties": {
        "norad_id": 46114,
        "name": "GALAXY 30 (G-30)",
        "group": "intelsat",
        "lat": -0.016313647858967252,
        "lon": -50.69072493284372,
        "alt_km": 35779.14883595938,
        "timestamp": "2025-12-24T22:42:21.690266+00:00",
        "meta_object_name": "GALAXY 30 (G-30)",
        "meta_object_id": "2020-056C",
        "meta_epoch": "2025-12-24T05:57:38.851776",
        "meta_mean_motion": 1.00271057,
        "meta_eccentricity": 0.00021028,
        "meta_inclination": 0.014,
        "meta_ra_of_asc_node": 325.0857,
        "meta_arg_of_pericenter": 306.9957,
        "meta_mean_anomaly": 145.3551,
        "meta_ephemeris_type": 0,
        "meta_classification_type": "U",
        "meta_norad_cat_id": 46114,
        "meta_element_set_no": 999,
        "meta_rev_at_epoch": 1953,
        "meta_bstar": 0,
        "meta_mean_motion_dot": 5.8e-07,
        "meta_mean_motion_ddot": 0,
        "tle_line1": "1 46114U 20056C   25358.24836634  .00000058  00000+0  00000+0 0  9999",
        "tle_line2": "2 46114   0.0140 325.0857 0002102 306.9957 145.3551  1.00271057 19532"
      },
      "geometry": {
        "type": "Point",
        "coordinates": [
          -50.69072493284372,
          -0.016313647858967252
        ]
      }
    },
    {
      "type": "Feature",
      "properties": {
        "norad_id": 54026,
        "name": "GALAXY 33 (G-33)",
        "group": "intelsat",
        "lat": -0.015419611414161146,
        "lon": -58.68443568884481,
        "alt_km": 35780.27735157198,
        "timestamp": "2025-12-24T22:42:21.690278+00:00",
        "meta_object_name": "GALAXY 33 (G-33)",
        "meta_object_id": "2022-128A",
        "meta_epoch": "2025-12-24T04:31:51.326400",
        "meta_mean_motion": 1.00272122,
        "meta_eccentricity": 0.0001643,
        "meta_inclination": 0.0126,
        "meta_ra_of_asc_node": 315.9231,
        "meta_arg_of_pericenter": 309.5058,
        "meta_mean_anomaly": 122.5078,
        "meta_ephemeris_type": 0,
        "meta_classification_type": "U",
        "meta_norad_cat_id": 54026,
        "meta_element_set_no": 999,
        "meta_rev_at_epoch": 1198,
        "meta_bstar": 0,
        "meta_mean_motion_dot": 1e-06,
        "meta_mean_motion_ddot": 0,
        "tle_line1": "1 54026U 22128A   25358.18878850  .00000100  00000+0  00000+0 0  9999",
        "tle_line2": "2 54026   0.0126 315.9231 0001643 309.5058 122.5078  1.00272122 11987"
      },
      "geometry": {
        "type": "Point",
        "coordinates": [
          -58.68443568884481,
          -0.015419611414161146
        ]
      }
    },
    {
      "type": "Feature",
      "properties": {
        "norad_id": 54027,
        "name": "GALAXY 34 (G-34)",
        "group": "intelsat",
        "lat": -0.03523548288796888,
        "lon": -54.65038552653379,
        "alt_km": 35780.59891918655,
        "timestamp": "2025-12-24T22:42:21.690289+00:00",
        "meta_object_name": "GALAXY 34 (G-34)",
        "meta_object_id": "2022-128B",
        "meta_epoch": "2025-12-24T06:22:23.360160",
        "meta_mean_motion": 1.00269724,
        "meta_eccentricity": 0.00018252,
        "meta_inclination": 0.0222,
        "meta_ra_of_asc_node": 355.4296,
        "meta_arg_of_pericenter": 270.8964,
        "meta_mean_anomaly": 153.3579,
        "meta_ephemeris_type": 0,
        "meta_classification_type": "U",
        "meta_norad_cat_id": 54027,
        "meta_element_set_no": 999,
        "meta_rev_at_epoch": 1215,
        "meta_bstar": 0,
        "meta_mean_motion_dot": 0,
        "meta_mean_motion_ddot": 0,
        "tle_line1": "1 54027U 22128B   25358.26554815  .00000000  00000+0  00000+0 0  9990",
        "tle_line2": "2 54027   0.0222 355.4296 0001825 270.8964 153.3579  1.00269724 12155"
      },
      "geometry": {
        "type": "Point",
        "coordinates": [
          -54.65038552653379,
          -0.03523548288796888
        ]
      }
    },
    {
      "type": "Feature",
      "properties": {
        "norad_id": 54243,
        "name": "GALAXY 31 (G-31)",
        "group": "intelsat",
        "lat": -0.004783701231607023,
        "lon": -46.69842104338773,
        "alt_km": 35780.805050847455,
        "timestamp": "2025-12-24T22:42:21.690301+00:00",
        "meta_object_name": "GALAXY 31 (G-31)",
        "meta_object_id": "2022-153A",
        "meta_epoch": "2025-12-23T15:58:50.418048",
        "meta_mean_motion": 1.00271329,
        "meta_eccentricity": 0.00014745,
        "meta_inclination": 0.0283,
        "meta_ra_of_asc_node": 245.972,
        "meta_arg_of_pericenter": 36.0828,
        "meta_mean_anomaly": 289.1035,
        "meta_ephemeris_type": 0,
        "meta_classification_type": "U",
        "meta_norad_cat_id": 54243,
        "meta_element_set_no": 999,
        "meta_rev_at_epoch": 537,
        "meta_bstar": 0,
        "meta_mean_motion_dot": 3.4e-07,
        "meta_mean_motion_ddot": 0,
        "tle_line1": "1 54243U 22153A   25357.66586132  .00000034  00000+0  00000+0 0  9995",
        "tle_line2": "2 54243   0.0283 245.9720 0001474  36.0828 289.1035  1.00271329  5373"
      },
      "geometry": {
        "type": "Point",
        "coordinates": [
          -46.69842104338773,
          -0.004783701231607023
        ]
      }
    },
    {
      "type": "Feature",
      "properties": {
        "norad_id": 54244,
        "name": "GALAXY 32 (G-32)",
        "group": "intelsat",
        "lat": -0.01650549583699628,
        "lon": -16.693031620036116,
        "alt_km": 35778.825970557446,
        "timestamp": "2025-12-24T22:42:21.690313+00:00",
        "meta_object_name": "GALAXY 32 (G-32)",
        "meta_object_id": "2022-153B",
        "meta_epoch": "2025-12-24T00:35:10.537728",
        "meta_mean_motion": 1.00272312,
        "meta_eccentricity": 0.00019036,
        "meta_inclination": 0.0096,
        "meta_ra_of_asc_node": 16.5696,
        "meta_arg_of_pericenter": 300.0291,
        "meta_mean_anomaly": 53.9983,
        "meta_ephemeris_type": 0,
        "meta_classification_type": "U",
        "meta_norad_cat_id": 54244,
        "meta_element_set_no": 999,
        "meta_rev_at_epoch": 1138,
        "meta_bstar": 0,
        "meta_mean_motion_dot": -1.53e-06,
        "meta_mean_motion_ddot": 0,
        "tle_line1": "1 54244U 22153B   25358.02442752 -.00000153  00000+0  00000+0 0  9999",
        "tle_line2": "2 54244   0.0096  16.5696 0001903 300.0291  53.9983  1.00272312 11385"
      },
      "geometry": {
        "type": "Point",
        "coordinates": [
          -16.693031620036116,
          -0.01650549583699628
        ]
      }
    }
  ]
}